STARLINK-2459           
1 48119U 21027AD  24228.61701580  .00009106  00000+0  62956-3 0  9997
2 48119  53.0524 195.2518 0001501  98.5138 261.6021 15.06390752186614
STARLINK-2460           
1 48120U 21027AE  24228.29177359  .00017721  00000+0  12057-2 0  9992
2 48120  53.0516 216.7215 0001375  92.4585 267.6562 15.06395546186306
STARLINK-2462           
1 48121U 21027AF  24228.26322402 -.00013590  00000+0 -89690-3 0  9991
2 48121  53.0518 206.8505 0001738 119.3869 240.7294 15.06327726186420
STARLINK-2463           
1 48122U 21027AG  24228.19546525  .00003562  00000+0  25799-3 0  9994
2 48122  53.0532 202.1266 0001505  85.7381 274.3780 15.06389571186493
STARLINK-2464           
1 48123U 21027AH  24228.60322328 -.00000147  00000+0  89968-5 0  9991
2 48123  53.0533 195.3250 0001382  94.1982 265.9165 15.06397829186628
STARLINK-2465           
1 48124U 21027AJ  24228.20422559  .00004726  00000+0  33606-3 0  9997
2 48124  53.0526 207.1141 0001554  85.4883 274.6283 15.06388982186411
STARLINK-2466           
1 48125U 21027AK  24228.28442740  .00003816  00000+0  27506-3 0  9991
2 48125  53.0522 216.9959 0001385  95.1256 264.9891 15.06381853186290
STARLINK-2467           
1 48126U 21027AL  24228.17197886  .00011124  00000+0  76474-3 0  9997
2 48126  53.0526 197.2624 0001681  96.6546 263.4635 15.06389472186567
STARLINK-2468           
1 48127U 21027AM  24228.22911373  .00012933  00000+0  88545-3 0  9990
2 48127  53.0517 217.0019 0001513  73.2627 286.8528 15.06404443186287
STARLINK-2469           
1 48128U 21027AN  24228.47515071  .00009284  00000+0  64140-3 0  9993
2 48128  53.0513 145.9878 0001197  86.9551 273.1575 15.06394195187296
STARLINK-2471           
1 48129U 21027AP  24228.28808101  .00002289  00000+0  17257-3 0  9997
2 48129  53.0527 216.7381 0001445  94.4811 265.6343 15.06384627186294
STARLINK-2472           
1 48130U 21027AQ  24228.26373545  .00011880  00000+0  81547-3 0  9996
2 48130  53.0524 222.3991 0001412  91.7112 268.4039 15.06382270186218
STARLINK-2473           
1 48131U 21027AR  24228.23094662  .00004527  00000+0  32273-3 0  9996
2 48131  53.0521 196.9930 0001450  90.2916 269.8239 15.06389311186561
STARLINK-2474           
1 48132U 21027AS  24228.27702697  .00021316  00000+0  14459-2 0  9995
2 48132  53.0520 216.7896 0000904  75.7565 284.3524 15.06392185186285
STARLINK-2475           
1 48133U 21027AT  24228.27333082 -.00000534  00000+0 -16934-4 0  9997
2 48133  53.0529 216.8077 0001388  96.0312 264.0836 15.06386322186298
STARLINK-2476           
1 48134U 21027AU  24228.25858925  .00004423  00000+0  31568-3 0  9992
2 48134  53.0525 216.8718 0001483  86.9031 273.2127 15.06393135186283
STARLINK-2478           
1 48135U 21027AV  24228.25999517  .00005988  00000+0  42071-3 0  9994
2 48135  53.0528 222.0281 0001470  87.9155 272.2002 15.06386815186216
STARLINK-2479           
1 48136U 21027AW  24228.26602395  .00003607  00000+0  26098-3 0  9998
2 48136  53.0527 217.3406 0001471  88.8895 271.2263 15.06391067186284
STARLINK-2480           
1 48137U 21027AX  24228.17565345  .00001204  00000+0  99744-4 0  9992
2 48137  53.0548 197.2190 0001537  95.5256 264.5909 15.06387311186552
STARLINK-2481           
1 48138U 21027AY  24228.26964738  .00000309  00000+0  39635-4 0  9990
2 48138  53.0530 216.8234 0001502  95.2709 264.8452 15.06393671186296
STARLINK-2482           
1 48139U 21027AZ  24228.19409077  .00005339  00000+0  37713-3 0  9995
2 48139  53.0535 197.1594 0001353  88.4087 271.7057 15.06393614186564
STARLINK-2483           
1 48140U 21027BA  24228.28076553  .00014909  00000+0  10173-2 0  9999
2 48140  53.0522 217.3276 0001565 107.6087 252.5073 15.06413422186287
STARLINK-2484           
1 48141U 21027BB  24228.25121503  .00003199  00000+0  23363-3 0  9998
2 48141  53.0527 216.9037 0001469  86.6980 273.4177 15.06392610186309
STARLINK-2485           
1 48142U 21027BC  24228.19040715  .00011229  00000+0  77172-3 0  9997
2 48142  53.0519 197.1782 0001545  91.6768 268.4398 15.06391237186564
STARLINK-2486           
1 48143U 21027BD  24228.51339230  .00021755  00000+0  14747-2 0  9990
2 48143  53.0522 150.8264 0001221 102.4528 257.6598 15.06404041187231
STARLINK-2487           
1 48144U 21027BE  24228.19777946  .00008335  00000+0  57791-3 0  9991
2 48144  53.0522 197.1440 0001528  85.6358 274.4806 15.06393538186556
STARLINK-2488           
1 48145U 21027BF  24228.59953261  .00001299  00000+0  10611-3 0  9994
2 48145  53.0540 195.3414 0001467  84.5129 275.6027 15.06400533186624
STARLINK-2491           
1 48148U 21027BJ  24228.23280069  .00011872  00000+0  81497-3 0  9995
2 48148  53.0522 216.9881 0001582  96.8926 263.2243 15.06380220186278
STARLINK-2492           
1 48149U 21027BK  24228.17933919  .00000006  00000+0  19276-4 0  9992
2 48149  53.0546 197.2270 0001329 100.4377 259.6761 15.06398421186556
STARLINK-2493           
1 48150U 21027BL  24228.18302990  .00003067  00000+0  22472-3 0  9995
2 48150  53.0521 197.2110 0001487  86.8339 273.2820 15.06394425186563
STARLINK-2503           
1 48151U 21027BM  24228.18673238 -.00002098  00000+0 -12208-3 0  9993
2 48151  53.0545 197.1946 0001727  90.4849 269.6338 15.06369147186566
STARLINK-2567           
1 48276U 21036A   24228.36042791  .00022675  00000+0  15358-2 0  9994
2 48276  53.0549  91.4134 0001561 105.4171 254.6991 15.06410197182695
STARLINK-2569           
1 48277U 21036B   24228.36180883  .00010239  00000+0  70520-3 0  9996
2 48277  53.0547  56.4045 0001291  86.2815 273.8321 15.06404912183180
STARLINK-2543           
1 48278U 21036C   24228.26643056 -.00005372  00000+0 -34214-3 0  9996
2 48278  53.0557  71.9138 0001097 114.5303 245.5800 15.06385991182955
STARLINK-2580           
1 48279U 21036D   24228.25906175  .00016165  00000+0  11012-2 0  9990
2 48279  53.0549  71.8690 0001173  88.6825 271.4298 15.06414690182952
STARLINK-2565           
1 48280U 21036E   24228.45165167  .00035267  00000+0  23748-2 0  9995
2 48280  53.0535 141.0044 0001144  75.5533 284.5582 15.06398415182004
STARLINK-2520           
1 48281U 21036F   24228.00012175  .00034786  00000+0  23394-2 0  9999
2 48281  53.0532 123.0345 0001496  72.8480 287.2673 15.06452118182212
STARLINK-2558           
1 48282U 21036G   24228.42170806  .00016052  00000+0  10946-2 0  9997
2 48282  53.0529 126.1357 0002094  76.5383 283.5840 15.06380814182212
STARLINK-2516           
1 48283U 21036H   24228.41801028  .00022277  00000+0  15093-2 0  9998
2 48283  53.0539 126.1548 0001131 110.0357 250.0754 15.06409935182211
STARLINK-2564           
1 48284U 21036J   24228.01624840  .00005132  00000+0  36343-3 0  9993
2 48284  53.0530 127.9578 0000936  71.4820 288.6271 15.06374268182145
STARLINK-2547           
1 48286U 21036L   24228.43280167  .00024902  00000+0  16852-2 0  9999
2 48286  53.0530 126.3594 0000925  82.7693 277.3401 15.06389530182204
STARLINK-2566           
1 48287U 21036M   24228.00516902  .00028083  00000+0  18953-2 0  9990
2 48287  53.0551 128.0119 0001278  90.2899 269.8237 15.06428039182148
STARLINK-2562           
1 48288U 21036N   24228.00887969 -.00007121  00000+0 -46002-3 0  9994
2 48288  53.0536 128.0727 0001155  77.7671 282.3448 15.06372017182147
STARLINK-2545           
1 48289U 21036P   24227.99781457  .00026460  00000+0  17907-2 0  9993
2 48289  53.0527 128.0429 0000937 101.4548 258.6546 15.06356269182148
STARLINK-2540           
1 48290U 21036Q   24228.45855487  .00034822  00000+0  23464-2 0  9998
2 48290  53.0539 125.9784 0001226  80.3569 279.7559 15.06379768182218
STARLINK-2555           
1 48291U 21036R   24228.45488369  .00037651  00000+0  25337-2 0  9994
2 48291  53.0533 125.9922 0000963  62.3396 297.7691 15.06391451182212
STARLINK-2542           
1 48292U 21036S   24228.00152371  .00031824  00000+0  21478-2 0  9995
2 48292  53.0535 128.1948 0001740  63.5611 296.5556 15.06364249182149
STARLINK-2550           
1 48293U 21036T   24228.44751052  .00038362  00000+0  25810-2 0  9993
2 48293  53.0521 126.0275 0001143  88.8597 271.2523 15.06389649182218
STARLINK-2533           
1 48294U 21036U   24228.44381239  .00028885  00000+0  19496-2 0  9992
2 48294  53.0524 126.0427 0001386 102.7105 257.4039 15.06409596182213
STARLINK-2535           
1 48295U 21036V   24228.04205011  .00036638  00000+0  24680-2 0  9998
2 48295  53.0529 127.8476 0001322 107.7824 252.3309 15.06366749182154
STARLINK-2546           
1 48296U 21036W   24228.43645415  .00025471  00000+0  17228-2 0  9991
2 48296  53.0522 126.0712 0000945  85.6356 274.4741 15.06396813182213
STARLINK-2559           
1 48298U 21036Y   24228.42906951 -.00002858  00000+0 -17311-3 0  9997
2 48298  53.0524 126.1055 0000791  17.4644 342.6372 15.06388564182212
STARLINK-2557           
1 48299U 21036Z   24228.42538423  .00034813  00000+0  23442-2 0  9998
2 48299  53.0531 126.1223 0001311  98.4660 261.6478 15.06405007182213
STARLINK-2538           
1 48300U 21036AA  24228.01901399  .00026292  00000+0  17758-2 0  9997
2 48300  53.0531 137.9491 0002621  80.8328 279.2958 15.06431800182010
STARLINK-2537           
1 48301U 21036AB  24228.47972228  .00008532  00000+0  59034-3 0  9998
2 48301  53.0532 135.8809 0001936  85.8520 274.2690 15.06439661182076
STARLINK-2556           
1 48302U 21036AC  24228.47606443  .00027791  00000+0  18779-2 0  9990
2 48302  53.0523 135.8976 0001092  80.4618 279.6494 15.06387063182073
STARLINK-2530           
1 48303U 21036AD  24228.45026286  .00011392  00000+0  80004-3 0  9991
2 48303  53.0530 136.4743 0001314  88.0655 272.0484 15.05567081182067
STARLINK-2524           
1 48304U 21036AE  24228.46870167  .00031339  00000+0  21138-2 0  9993
2 48304  53.0516 135.9295 0000996  98.7669 261.3433 15.06394028182072
STARLINK-2519           
1 48305U 21036AF  24228.45401476  .00004171  00000+0  29853-3 0  9993
2 48305  53.0530 136.5707 0001410  81.1841 278.9307 15.06427491182068
